0 DELTA 2 R/B(2) (PAM-D)
1 28876U 05038C   13281.22377546  .00011256  00000-0  13123-2 0  5216
2 28876 039.6136 340.1215 5784028 263.8000 040.1099 04.39496519123155
0 DELTA 2 R/B(2) (PAM-D)
1 28876U 05038C   13282.54191287  .00011570  00000-0  13374-2 0  5226
2 28876 039.6139 339.1530 5783820 265.0391 325.6928 04.39545011123213
0 DELTA 2 R/B(2) (PAM-D)
1 28876U 05038C   13283.33161772  .00011428  00000-0  13167-2 0  5233
2 28876 039.6139 338.5722 5783708 265.7800 135.2807 04.39563358123255
0 DELTA 2 R/B(2) (PAM-D)
1 28876U 05038C   13284.17913817  .00012154  00000-0  13945-2 0  5243
2 28876 039.6140 337.9490 5783654 266.5740 036.4283 04.39578665123284
0 DELTA 2 R/B(2) (PAM-D)
1 28876U 05038C   13285.91480522  .00012258  00000-0  14010-2 0  5258
2 28876 039.6141 336.6730 5783449 268.2017 263.1978 04.39620774123364
0 DELTA 2 R/B(2) (PAM-D)
1 28876U 05038C   13287.54706059  .00013055  00000-0  14934-2 0  5267
2 28876 039.6147 335.4717 5783273 269.7361 326.5559 04.39659503123434
0 DELTA 2 R/B(2) (PAM-D)
1 28876U 05038C   13288.55568287  .00014316  00000-0  16398-2 0  5276
2 28876 039.6144 334.7305 5783116 270.6852 123.0163 04.39692099123481
0 DELTA 2 R/B(2) (PAM-D)
1 28876U 05038C   13289.18288747  .00013522  00000-0  15502-2 0  5281
2 28876 039.6145 334.2693 5783045 271.2755 035.8042 04.39711769123502
0 DELTA 2 R/B(2) (PAM-D)
1 28876U 05038C   13289.96984712  .00013469  00000-0  15482-2 0  5290
2 28876 039.6141 333.6903 5782928 272.0146 201.5377 04.39731358123540
0 DELTA 2 R/B(2) (PAM-D)
1 28876U 05038C   13290.31401161  .00011811  00000-0  13112-2 0  5313
2 28876 039.6120 333.4249 5783666 272.3401 026.3880 04.39735495123554
0 DELTA 2 R/B(2) (PAM-D)
1 28876U 05038C   13291.72748656  .00014521  00000-0  16692-2 0  5308
2 28876 039.6142 332.3991 5782756 273.6588 104.0775 04.39776727123627
0 DELTA 2 R/B(2) (PAM-D)
1 28876U 05038C   13293.04235956  .00014752  00000-0  16947-2 0  5319
2 28876 039.6141 331.4313 5782522 274.9049 025.8390 04.39821098123671
0 DELTA 2 R/B(2) (PAM-D)
1 28876U 05038C   13294.52594913  .00014364  00000-0  16474-2 0  5329
2 28876 039.6140 330.3393 5782228 276.3011 214.9526 04.39872203123748
0 DELTA 2 R/B(2) (PAM-D)
1 28876U 05038C   13295.08954406  .00014314  00000-0  16379-2 0  5338
2 28876 039.6140 329.9245 5782177 276.8325 027.4153 04.39887014123765
